IRIDIUM 7               
1 24793U 97020B   24145.94221896  .00000739  00000+0  25167-3 0  9992
2 24793  86.3953 339.5728 0002013  81.6332 278.5092 14.35226750416196
IRIDIUM 5               
1 24795U 97020D   24145.81019409  .00008917  00000+0  84483-3 0  9997
2 24795  86.3924 261.7073 0124090  85.6550 275.8842 14.87728208427592
IRIDIUM 4               
1 24796U 97020E   24145.89436387  .00000770  00000+0  25773-3 0  9990
2 24796  86.3946 336.7281 0002228  85.1214 275.0237 14.36151671416722
IRIDIUM 914             
1 24836U 97030A   24145.91789761  .00000861  00000+0  26713-3 0  9992
2 24836  86.3936 346.4625 0003862  76.2175 283.9453 14.40009183551237
IRIDIUM 16              
1 24841U 97030F   24145.85967443  .00000823  00000+0  26641-3 0  9994
2 24841  86.4055   8.3983 0000217 160.7856 199.3350 14.37903117411184
IRIDIUM 911             
1 24842U 97030G   24145.85669712  .00001060  00000+0  28861-3 0  9993
2 24842  86.4479   7.5461 0012860 319.4660  40.5584 14.46540802418923
IRIDIUM 17              
1 24870U 97034B   24146.16229325  .00000784  00000+0  25823-3 0  9992
2 24870  86.3986  37.8629 0002048 130.1495 229.9882 14.36998891407846
IRIDIUM 920             
1 24871U 97034C   24145.74409745  .00000802  00000+0  24492-3 0  9994
2 24871  86.4001  18.1781 0009496 287.3920  72.6241 14.40715611410634
